NORAD_CAT_ID,OBJECT_NAME,OBJECT_TYPE,EPOCH,MEAN_MOTION,ECCENTRICITY,INCLINATION,RA_OF_ASC_NODE,ARG_OF_PERICENTER,MEAN_ANOMALY,BSTAR,MEAN_MOTION_DOT,MEAN_MOTION_DDOT,TLE_LINE0,TLE_LINE1,TLE_LINE2,SEMIMAJOR_AXIS,PERIOD,APOGEE,PERIGEE,DECAYED
52854.0,STARLINK-4204,PAYLOAD,2022-11-04 13:31:49,15.08851755,0.0001855,53.2178,105.9591,49.9774,310.138,-8.5107e-06,-4.24e-06,0.0,0 STARLINK-4204,1 52854U 22062AA  22308.56376812 -.00000424  00000-0 -85107-5 0  9997,2 52854  53.2178 105.9591 0001855  49.9774 310.1380 15.08851755 21577,6917.844,95.437,540.993,538.4259999999998,0.0
52854.0,STARLINK-4204,PAYLOAD,2022-11-05 10:11:50,15.08844408,0.0002239,53.2167,102.0934,57.273,302.8478,6.808e-05,7.95e-06,0.0,0 STARLINK-4204,1 52854U 22062AA  22309.42489053  .00000795  00000-0  68080-4 0  9994,2 52854  53.2167 102.0934 0002239  57.2730 302.8478 15.08844408 21703,6917.8669999999975,95.437,541.281,538.183,0.0
52854.0,STARLINK-4204,PAYLOAD,2022-11-05 16:33:23,15.08839344,0.0001737,53.2244,100.9042,337.8833,22.2084,-5.3514e-05,-1.14e-05,0.0,0 STARLINK-4204,1 52854U 22062AA  22309.68985702 -.00001140  00000-0 -53514-4 0  9997,2 52854  53.2244 100.9042 0001737 337.8833  22.2084 15.08839344 22237,6917.882,95.438,540.9490000000002,538.5459999999998,0.0
52854.0,STARLINK-4204,PAYLOAD,2022-11-06 11:38:01,15.08838596,0.0001696,53.2187,97.3359,44.7469,315.3659,-1.2756e-05,-4.91e-06,0.0,0 STARLINK-4204,1 52854U 22062AA  22310.48473725 -.00000491  00000-0 -12756-4 0  9995,2 52854  53.2187  97.3359 0001696  44.7469 315.3659 15.08838596 22351,6917.885,95.438,540.923,538.576,0.0
52854.0,STARLINK-4204,PAYLOAD,2022-11-07 13:04:11,15.08832805,0.00018,53.2185,92.5781,44.3981,315.7155,0.00015793,2.226e-05,0.0,0 STARLINK-4204,1 52854U 22062AA  22311.54457674  .00002226  00000-0  15793-3 0  9997,2 52854  53.2185  92.5781 0001800  44.3981 315.7155 15.08832805 22517,6917.901999999999,95.438,541.013,538.5219999999998,0.0
52854.0,STARLINK-4204,PAYLOAD,2022-11-07 19:25:43,15.08836962,0.0001919,53.2188,91.3899,45.7567,314.3583,0.00018897,2.72e-05,0.0,0 STARLINK-4204,1 52854U 22062AA  22311.80953471  .00002720  00000-0  18897-3 0  9999,2 52854  53.2188  91.3899 0001919  45.7567 314.3583 15.08836962 22061,6917.89,95.438,541.082,538.427,0.0
52854.0,STARLINK-4204,PAYLOAD,2022-11-08 06:33:25,15.08845035,0.0001818,53.2182,89.307,41.1174,318.9955,0.00016958,2.412e-05,0.0,0 STARLINK-4204,1 52854U 22062AA  22312.27320860  .00002412  00000-0  16958-3 0  9995,2 52854  53.2182  89.3070 0001818  41.1174 318.9955 15.08845035 22621,6917.865,95.437,540.988,538.472,0.0
52854.0,STARLINK-4204,PAYLOAD,2022-11-08 09:44:11,15.08847816,0.0001802,53.2181,88.7119,41.1139,318.9989,0.00013976,1.937e-05,0.0,0 STARLINK-4204,1 52854U 22062AA  22312.40568755  .00001937  00000-0  13976-3 0  9995,2 52854  53.2181  88.7119 0001802  41.1139 318.9989 15.08847816 22155,6917.856,95.437,540.9680000000002,538.475,0.0
52854.0,STARLINK-4204,PAYLOAD,2022-11-08 16:05:43,15.08855243,0.0001891,53.2183,87.5234,39.7172,320.3958,0.00020639,2.999e-05,0.0,0 STARLINK-4204,1 52854U 22062AA  22312.67064109  .00002999  00000-0  20639-3 0  9991,2 52854  53.2183  87.5234 0001891  39.7172 320.3958 15.08855243 22684,6917.834,95.437,541.007,538.391,0.0
52854.0,STARLINK-4204,PAYLOAD,2022-11-09 14:21:09,15.08830824,0.0001784,53.2186,83.3602,43.1422,316.9709,-6.3387e-05,-1.297e-05,0.0,0 STARLINK-4204,1 52854U 22062AA  22313.59802094 -.00001297  00000-0 -63387-4 0  9996,2 52854  53.2186  83.3602 0001784  43.1422 316.9709 15.08830824 22333,6917.908,95.438,541.008,538.539,0.0
52854.0,STARLINK-4204,PAYLOAD,2022-11-09 15:56:32,15.08831025,0.0001993,53.2188,83.064,39.6117,320.5021,-5.9165e-05,-1.229e-05,0.0,0 STARLINK-4204,1 52854U 22062AA  22313.66426161 -.00001229  00000-0 -59165-4 0  9995,2 52854  53.2188  83.0640 0001993  39.6117 320.5021 15.08831025 22834,6917.908,95.438,541.1519999999998,538.394,0.0
52854.0,STARLINK-4204,PAYLOAD,2022-11-10 11:01:10,15.08829875,0.00019,53.2187,79.4948,42.8438,317.2702,-0.00010321,-1.93e-05,0.0,0 STARLINK-4204,1 52854U 22062AA  22314.45914524 -.00001930  00000-0 -10321-3 0  9997,2 52854  53.2187  79.4948 0001900  42.8438 317.2702 15.08829875 22461,6917.911,95.438,541.091,538.462,0.0
52854.0,STARLINK-4204,PAYLOAD,2022-11-10 14:11:56,15.08831089,0.0001961,53.2188,78.9004,41.06,319.0540000000001,-8.6261e-05,-1.66e-05,0.0,0 STARLINK-4204,1 52854U 22062AA  22314.59162506 -.00001660  00000-0 -86261-4 0  9994,2 52854  53.2188  78.9004 0001961  41.0600 319.0540 15.08831089 22480,6917.908,95.438,541.129,538.4159999999998,0.0
52854.0,STARLINK-4204,PAYLOAD,2022-11-11 02:55:02,15.088232199999998,0.000199,53.219,76.5219,36.8565,323.2564,-5.906899999999999e-05,-1.228e-05,0.0,0 STARLINK-4204,1 52854U 22062AA  22315.12155411 -.00001228  00000-0 -59069-4 0  9997,2 52854  53.2190  76.5219 0001990  36.8565 323.2564 15.08823220 23054,6917.932,95.439,541.173,538.42,0.0
52854.0,STARLINK-4204,PAYLOAD,2022-11-11 12:27:21,15.08819099,0.0001984,53.219,74.7379,43.4049,316.7099,0.00014854,2.075e-05,0.0,0 STARLINK-4204,1 52854U 22062AA  22315.51899599  .00002075  00000-0  14854-3 0  9993,2 52854  53.2190  74.7379 0001984  43.4049 316.7099 15.08819099 22626,6917.944,95.439,541.182,538.437,0.0
52854.0,STARLINK-4204,PAYLOAD,2022-11-11 15:38:07,15.08822993,0.0002048,53.219,74.1431,40.6477,319.4668,0.0001733,2.47e-05,0.0,0 STARLINK-4204,1 52854U 22062AA  22315.65147490  .00002470  00000-0  17330-3 0  9995,2 52854  53.2190  74.1431 0002048  40.6477 319.4668 15.08822993 22646,6917.932,95.439,541.214,538.381,0.0
52854.0,STARLINK-4204,PAYLOAD,2022-11-12 02:45:48,15.08838744,0.0001975,53.2191,72.0616,29.8422,330.2682,0.00024171,3.561e-05,0.0,0 STARLINK-4204,1 52854U 22062AA  22316.11514749  .00003561  00000-0  24171-3 0  9995,2 52854  53.2191  72.0616 0001975  29.8422 330.2682 15.08838744 23207,6917.884,95.438,541.116,538.383,0.0
52854.0,STARLINK-4204,PAYLOAD,2022-11-12 13:53:29,15.08853897,0.0001962,53.2192,69.98,39.4052,320.7083,0.00036041,5.455e-05,0.0,0 STARLINK-4204,1 52854U 22062AA  22316.57881609  .00005455  00000-0  36041-3 0  9990,2 52854  53.2192  69.9800 0001962  39.4052 320.7083 15.08853897 23272,6917.8380000000025,95.437,541.06,538.346,0.0
52854.0,STARLINK-4204,PAYLOAD,2022-11-12 17:04:16,15.08856123,0.000205,53.2185,69.3857,35.5954,324.5174,0.00051297,7.889e-05,0.0,0 STARLINK-4204,1 52854U 22062AA  22316.71130215  .00007889  00000-0  51297-3 0  9999,2 52854  53.2185  69.3857 0002050  35.5954 324.5174 15.08856123 22803,6917.831,95.437,541.114,538.278,0.0
52854.0,STARLINK-4204,PAYLOAD,2022-11-13 04:11:58,15.08856055,0.0001947,53.2176,67.3034,49.5061,310.61,0.00034159,5.155e-05,0.0,0 STARLINK-4204,1 52854U 22062AA  22317.17498078  .00005155  00000-0  34159-3 0  9996,2 52854  53.2176  67.3034 0001947  49.5061 310.6100 15.08856055 23367,6917.831,95.437,541.043,538.349,0.0
52854.0,STARLINK-4204,PAYLOAD,2022-11-13 10:33:31,15.08833532,0.0002049,53.2187,66.1144,36.5404,323.5728,2.7571e-05,1.51e-06,0.0,0 STARLINK-4204,1 52854U 22062AA  22317.43995010  .00000151  00000-0  27571-4 0  9995,2 52854  53.2187  66.1144 0002049  36.5404 323.5728 15.08833532 23408,6917.9,95.438,541.183,538.3480000000002,0.0
52854.0,STARLINK-4204,PAYLOAD,2022-11-13 13:44:18,15.0883303,0.0002002,53.2193,65.5197,38.4548,321.6586,0.00010598,1.399e-05,0.0,0 STARLINK-4204,1 52854U 22062AA  22317.57243217  .00001399  00000-0  10598-3 0  9990,2 52854  53.2193  65.5197 0002002  38.4548 321.6586 15.08833030 22936,6917.901999999999,95.438,541.1519999999998,538.382,0.0
52854.0,STARLINK-4204,PAYLOAD,2022-11-14 07:13:32,15.08845173,0.0002071,53.2192,62.2491,39.2455,320.8687,-7.9012e-05,-1.546e-05,0.0,0 STARLINK-4204,1 52854U 22062AA  22318.30106929 -.00001546  00000-0 -79012-4 0  9993,2 52854  53.2192  62.2491 0002071  39.2455 320.8687 15.08845173 23539,6917.865,95.437,541.1619999999998,538.297,0.0
52854.0,STARLINK-4204,PAYLOAD,2022-11-14 10:24:18,15.0884762,0.0002065,53.2192,61.6543,39.7599,320.3544,-5.3973e-05,-1.147e-05,0.0,0 STARLINK-4204,1 52854U 22062AA  22318.43354639 -.00001147  00000-0 -53973-4 0  9995,2 52854  53.2192  61.6543 0002065  39.7599 320.3544 15.08847620 23061,6917.857,95.437,541.151,538.294,0.0
52854.0,STARLINK-4204,PAYLOAD,2022-11-14 16:45:50,15.08852666,0.0002041,53.2193,60.4644,39.0749,321.039,-4.271100000000001e-05,-9.68e-06,0.0,0 STARLINK-4204,1 52854U 22062AA  22318.69850112 -.00000968  00000-0 -42711-4 0  9998,2 52854  53.2193  60.4644 0002041  39.0749 321.0390 15.08852666 23103,6917.842,95.437,541.119,538.295,0.0
52854.0,STARLINK-4204,PAYLOAD,2022-11-15 07:04:19,15.08826466,0.0002143,53.2193,57.7891,45.9574,314.1594,0.00025812,3.821e-05,0.0,0 STARLINK-4204,1 52854U 22062AA  22319.29466770  .00003821  00000-0  25812-3 0  9999,2 52854  53.2193  57.7891 0002143  45.9574 314.1594 15.08826466 23682,6917.922,95.438,541.269,538.304,0.0
52854.0,STARLINK-4204,PAYLOAD,2022-11-15 13:25:51,15.08835671,0.0002088,53.2195,56.5995,38.2752,321.8389,1.0028e-05,-1.29e-06,0.0,0 STARLINK-4204,1 52854U 22062AA  22319.55962899 -.00000129  00000-0  10028-4 0  9994,2 52854  53.2195  56.5995 0002088  38.2752 321.8389 15.08835671 23233,6917.894,95.438,541.203,538.314,0.0
52854.0,STARLINK-4204,PAYLOAD,2022-11-16 13:16:39,15.08833043,0.0002177,53.2197,52.1407,32.0656,328.0468,4.3892e-05,4.1e-06,0.0,0 STARLINK-4204,1 52854U 22062AA  22320.55323495  .00000410  00000-0  43892-4 0  9996,2 52854  53.2197  52.1407 0002177  32.0656 328.0468 15.08833043 23877,6917.901999999999,95.438,541.273,538.261,0.0
52854.0,STARLINK-4204,PAYLOAD,2022-11-17 01:59:43,15.0884369,0.0002201,53.2199,49.7619,30.8564,329.2557,8.2759e-05,1.029e-05,0.0,0 STARLINK-4204,1 52854U 22062AA  22321.08314608  .00001029  00000-0  82759-4 0  9993,2 52854  53.2199  49.7619 0002201  30.8564 329.2557 15.08843690 23958,6917.869000000002,95.437,541.257,538.211,0.0
